Name,Address,Phone,Lat,Long
Holman-Abbeville Mortuary Inc,"434 Ozark Rd, Abbeville, AL 36310, USA",(334) 585-5261,31.554803,-85.268855
Stanford & Son Funeral Home,"2378 US-431, Abbeville, AL 36310, USA",(334) 585-5344,31.5558681,-85.2832779
Crestview Memorial Funeral Home Inc,"4732 Adamsville Pkwy, Adamsville, AL 35005, USA",(205) 674-1616,33.6004106,-86.94781189999999
Nichols Funeral Homes,"32657 US-278, Addison, AL 35540, USA",(256) 747-6063,34.1878512,-87.1525578
Armour's Funeral Service,"1465 N Central Ave, Alexander City, AL 35010, USA",(256) 234-2776,32.9613695,-85.96375309999999
Heritage Chapel Funeral Home,"131 Mason St, Alexander City, AL 35010, USA",(256) 234-6327,32.9311035,-85.9498167
House Of Hutchinson Funeral Directors,"715 Jefferson St, Alexander City, AL 35010, USA",(256) 234-7531,32.9524748,-85.94705520000001
Radney's Funeral Home Inc,"1326 Dadeville Rd, Alexander City, AL 35010, USA",(256) 234-2511,32.929385,-85.94673709999999
Foreman Brown-Service Funeral Home Inc,"1516 M.L.K. Jr Expy, Andalusia, AL 36420, USA",(334) 222-4567,31.3181909,-86.455037
Keahey Funeral Home,"206 Stanley Ave, Andalusia, AL 36420, USA",(334) 222-8440,31.3065695,-86.4712055
Kirk's Funeral Chapel,"501 M L King Jr Expy, Andalusia, AL 36420, USA",(334) 222-6156,31.3205126,-86.4810311
Marshall-Hammond Funeral Home,"230 N Cotton St, Andalusia, AL 36420, USA",(334) 222-4093,31.3122013,-86.48190389999999
Anniston Funeral Service,"630 S Wilmer Ave, Anniston, AL 36201, USA",(256) 236-0319,33.6387757,-85.8273876
Anniston Memorial Funeral Home,"3865 US-431, Anniston, AL 36206, USA",(256) 820-0024,33.7291126,-85.8782992
Chapel Hill Funeral Home & Crematory Inc,"542 W 52nd St, Anniston, AL 36206, USA",(256) 820-5151,33.71316910000001,-85.8416652
Ervin Funeral Chapel,"1518 Brown Ave, Anniston, AL 36201, USA",(256) 237-1717,33.6644999,-85.8462
Gray Brown-Service Mortuary & Crematory,"1329 Wilmer Ave, Anniston, AL 36201, USA",(256) 236-3441,33.6620879,-85.8281058
Model City Mortuary,"1625 W 8th St, Anniston, AL 36201, USA",(256) 238-8785,33.6552164,-85.8516781
Ardmore Memorial Funeral Home,"27186 E, Main St, Ardmore, AL 35739, USA",(256) 423-4100,34.9912777,-86.8345873
Taylor Ardmore Funeral Home,"27272 Main St, Ardmore, AL 35739, USA",(256) 423-3344,34.9909971,-86.83325649999999
Benefield Funeral Home of Ashland Inc,"85499 AL-9, Ashland, AL 36251, USA",(256) 354-2434,33.2826762,-85.795853
Clay County Funeral Home & Memory Gardens,"85251 AL-9, Ashland, AL 36251, USA",(256) 354-3214,33.2819105,-85.7999523
Limestone Chapel Funeral Home Inc,"322 US-31, Athens, AL 35611, USA",(256) 232-1051,34.8093304,-86.9474663
Masons Funeral Home,"718 Browns Ferry St, Athens, AL 35611, USA",(256) 232-4822,34.7977803,-86.97891
McConnell Funeral Home,"1200 E Forrest St, Athens, AL 35613, USA",(256) 232-1515,34.7960202,-86.9535298
People Funeral Home Of North Alabama Inc,"12060 US-31, Tanner, AL 35671, USA",(256) 232-1600,34.7320493,-86.95637660000001
Spry Funeral Home Of Athens Inc,"804 US Hwy 72 W, Athens, AL 35611, USA",(256) 232-2622,34.790656,-86.9794005
Atmore Memorial Chapel Funeral Home,"1400 E Nashville Ave, Atmore, AL 36502, USA",(251) 368-2540,31.0243683,-87.47830189999999
Eastside Chapel Funeral Home,"9260 US-31, Atmore, AL 36502, USA",(251) 368-4540,31.02405619999999,-87.45934249999999
Johnson-Quimby Funeral Home Inc,"1322 S Main St, Atmore, AL 36502, USA",(251) 368-2176,31.0075524,-87.4943069
Mosley's Funeral Home,"1130 Freemanville Dr, Atmore, AL 36502, USA",(251) 446-8605,31.0822533,-87.5167924
Robinson Funeral Home,"78 Harris St, Atmore, AL 36502, USA",(251) 368-2132,31.0298216,-87.4836486
Turner Funeral Chapel,"149 Carver Ave, Atmore, AL 36502, USA",(251) 368-2400,31.0315922,-87.4837943
Morgan Funeral Chapel,"625 Gilbert Ferry Rd SE, Attalla, AL 35954, USA",(256) 538-7834,33.9961892,-86.1014915
Baldwin Community Chapel,"810 W Hurricane Rd, Bay Minette, AL 36507, USA",(251) 937-6817,30.8659893,-87.7855069
Norris Funeral Home,"402 E 2nd St, Bay Minette, AL 36507, USA",(251) 937-9596,30.8841717,-87.77020069999999
Angwin Mortuary Centers,"600 9th Ave N, Bessemer, AL 35020, USA",(205) 428-0900,33.3926936,-86.97406529999999
Bessemer Brown-Service Funeral Home,"1300 4th Ave N, Bessemer, AL 35020, USA",(205) 425-2424,33.3969719,-86.9599787
Brighton Funeral Home Inc,"4400 Bessemer Super Hwy, Brighton, AL 35020, USA",(205) 425-3577,33.433735,-86.940427
Chambers Funeral Home Inc,"2527 9th Ave N, Bessemer, AL 35020, USA",(205) 425-5235,33.4138635,-86.9546045
Johnson Memorial Funeral Directors,"2601 9th Ave N, Bessemer, AL 35020, USA",(205) 425-2414,33.4144116,-86.9540554
R L Lumzy Funeral Service,"1901 1st Ave N, Bessemer, AL 35020, USA",(205) 425-1907,33.4014378,-86.9511045
Abanks Mortuary & Crematory,"808 5th Ave N, Birmingham, AL 35203, USA",(205) 322-9050,33.5105524,-86.8243181
Angwin Mortuary Centers,"3500 Ave I, Birmingham, AL 35218, USA",(205) 781-3631,33.4968271,-86.9028319
Arrington Funeral Home Inc,"520 Cotton Ave SW, Birmingham, AL 35211, USA",(205) 786-6288,33.4995919,-86.8415795
Bell Funeral Home,"2077 Pratt Hwy, Birmingham, AL 35214, USA",(205) 798-2890,33.5729865,-86.9125386
Birmingham Central Services,"2116 University Blvd, Birmingham, AL 35233, USA",(205) 251-5254,33.5060613,-86.7971206
Birmingham Mortuary Service,"US-411, Alabama, USA",(205) 699-8066,34.109702,-85.60316159999999
Bushelon's Funeral Home,"800 14th St S, Birmingham, AL 35205, USA",(205) 786-3449,33.5006758,-86.80737409999999
Davenport & Harris Funeral Homes Inc,"301 Martin Luther King Jr Dr, Birmingham, AL 35211, USA",(205) 252-2103,33.4923322,-86.8391716
DFS Memorials Birmingham,"2885 Allison-Bonnett Memorial Dr, Bessemer, AL 35023, USA",(205) 206-7785,33.453062,-86.96850700000002
Earnest Johnson Funeral Home,"8531 Zion City Rd, Birmingham, AL 35206, USA",(205) 836-3583,33.579728,-86.7375497
Elmwood Cemetery,"600 Martin Luther King Jr Dr, Birmingham, AL 35211, USA",205-251-3114,33.4899755,-86.83961599999999
Grey Memorial Funeral Home,"2512 29th Ave N, Birmingham, AL 35207, USA",(205) 251-1630,33.5508041,-86.8183861
Henderson Funeral Home,"4904 1st Ave N, Birmingham, AL 35222, USA",(205) 595-0887,33.5354511,-86.76201879999999
Jefferson Memorial Funeral Home,"1591 Gadsden Hwy, Birmingham, AL 35235, USA",(205) 322-0544,33.6002683,-86.6400929
Johns-Ridout's Chapels,"1802 Oxmoor Rd, Homewood, AL 35209, USA",205-879-3401,33.4775334,-86.7913603
Johns-Ridout's Mortuary Elmwood Chapel,"800 Dennison Ave SW, Birmingham, AL 35211, USA",(205) 251-7227,33.4810204,-86.8404266
Lakeshore Memorial Chapel,"131 Oxmoor Ct, Birmingham, AL 35209, USA",(205) 942-4441,33.4397434,-86.8445041
Lett Funeral Home,"2145 Bessemer Rd, Birmingham, AL 35208, USA",(205) 788-0079,33.4942767,-86.87953259999999
Parker Chapel Funeral Service,"1900 Ave I, Birmingham, AL 35218, USA",(205) 781-5678,33.5106776,-86.8930816
Poole Funeral Chapel Inc,"1501 7th Ave N, Birmingham, AL 35203, USA",(205) 322-5574,33.5170684,-86.81636979999999
Ridout's Brown-Service Inc,"Lacke Building, Birmingham, Alabama 35203",(205) 322-5613,,
Ridout's Roebuck Chapel,"9012 Parkway E, Birmingham, AL 35206, USA",(205) 833-7171,33.5836776,-86.7067002
Ridout's Valley Chapel,"1800 Oxmoor Rd, Homewood, AL 35209, USA",(205) 879-3401,33.4778003,-86.7915084
Roberts Funeral Home Inc/Central Park Chapel,"1337 Bessemer Rd, Birmingham, AL 35208, USA",(205) 925-5115,33.4801531,-86.8945284
Shortridge Funeral Home,"311 17th St Ensley, Birmingham, AL 35218, USA",(205) 785-3119,33.515623,-86.8973369
Smith & Gaston Funeral Director,"102 6th Ave S, Birmingham, AL 35205, USA",(205) 322-3581,33.4942473,-86.8281299
Southside Chapel,"2116 University Blvd, Birmingham, AL 35233, USA",205-251-5254,33.5060613,-86.7971206
Wren Funeral Home,"2516 Finley Blvd, Birmingham, AL 35234, USA",(205) 250-0994,33.5463206,-86.81621489999999
